ONEWEB-0393             
1 50473U 21132E   24032.80905208 -.00000021  00000+0 -87574-4 0  9990
2 50473  87.9242 178.1368 0001423  92.2378 267.8916 13.17649797104017
ONEWEB-0394             
1 50474U 21132F   24032.73995690  .00000063  00000+0  12739-3 0  9991
2 50474  87.9241 147.8860 0001616 110.6319 249.4986 13.18685245107409
ONEWEB-0395             
1 50475U 21132G   24032.74131026  .00000610  00000+0  16846-2 0  9998
2 50475  87.8982 193.3172 0001162  95.9097 264.2163 13.11417365102155
ONEWEB-0396             
1 50476U 21132H   24032.35424328  .00000113  00000+0  25330-3 0  9993
2 50476  87.9245 147.9535 0001595 113.3202 246.8098 13.18686967107397
ONEWEB-0397             
1 50477U 21132J   24033.35485926 -.00000215  00000+0 -57878-3 0  9993
2 50477  87.9247 147.7571 0001618 115.9648 244.1651 13.18685159108777
ONEWEB-0398             
1 50478U 21132K   24033.47177758 -.00000483  00000+0 -13997-2 0  9998
2 50478  87.8972 193.1564 0001353  88.7688 271.3595 13.11416188103429
ONEWEB-0399             
1 50479U 21132L   24032.99939272 -.00000395  00000+0 -11490-2 0  9990
2 50479  87.8979 193.2654 0001678 115.0068 245.1235 13.11414752103351
ONEWEB-0400             
1 50480U 21132M   24032.34791773  .00000121  00000+0  27491-3 0  9997
2 50480  87.9242 147.9646 0001563  98.4321 261.6988 13.18687582107366
